IRIDIUM 116             
1 43072U 17083C   25300.32767555  .00000271  00000+0  89558-4 0  9993
2 43072  86.3964  59.3299 0001823  96.6669 263.4734 14.34218510410796
IRIDIUM 130             
1 43073U 17083D   25300.08665673  .00000238  00000+0  77772-4 0  9993
2 43073  86.3972  59.6836 0001754  87.8467 272.2930 14.34218066410700
IRIDIUM 151             
1 43074U 17083E   25300.27059220  .00000424  00000+0  14419-3 0  9995
2 43074  86.3968  59.4063 0001876  96.8331 263.3078 14.34216646410752
IRIDIUM 134             
1 43075U 17083F   25300.30864729  .00000464  00000+0  15880-3 0  9995
2 43075  86.3968  59.3955 0001880  88.6265 271.5146 14.34217075410723
IRIDIUM 137             
1 43076U 17083G   25300.32133260  .00000393  00000+0  13320-3 0  9995
2 43076  86.3974  59.4785 0001771 112.0899 248.0485 14.34218256410791
IRIDIUM 141             
1 43077U 17083H   25300.31499114  .00000237  00000+0  77445-4 0  9994
2 43077  86.3966  59.3247 0002176  94.2807 265.8637 14.34218156410790
IRIDIUM 153             
1 43078U 17083J   25300.26717035  .00000106  00000+0  30643-4 0  9998
2 43078  86.4010  27.8295 0002430  90.7131 269.4343 14.34218000411893
IRIDIUM 131             
1 43079U 17083K   25300.30230564  .00000256  00000+0  84424-4 0  9993
2 43079  86.3969  59.5006 0002122  94.7270 265.4168 14.34218669410727
